start=new Date('2022-10-04T00:00:00.000Z').valueOf();
sats=[{"EPHEMERIS_TYPE":"0","MEAN_ELEMENT_THEORY":"SGP4","OBJECT_TYPE":"PAYLOAD","TLE_LINE1":"1 47874U 21021Q   22276.79980690  .00003805  00000-0  27416-3 0  9992","PERIOD":"95.592","SITE":"AFETR","NORAD_CAT_ID":"47874","EPOCH":"2022-10-03T19:11:43.316160","TLE_LINE2":"2 47874  53.0555  81.0821 0001467  72.7336 287.3814 15.06407236 88127","OBJECT_ID":"2021-021Q","DECAY_DATE":null,"PERIAPSIS":"546.175","SEMIMAJOR_AXIS":"6925.326","TIME_SYSTEM":"UTC","MEAN_MOTION":"15.06407236","GP_ID":"214118342","OBJECT_NAME":"STARLINK-2330","RCS_SIZE":"LARGE","REV_AT_EPOCH":"8812","ELEMENT_SET_NO":"999","FILE":"3590585","RA_OF_ASC_NODE":"81.0821","APOAPSIS":"548.207","REF_FRAME":"TEME","CENTER_NAME":"EARTH","INCLINATION":"53.0555","MEAN_ANOMALY":"287.3814","MEAN_MOTION_DDOT":"0.0000000000000","COUNTRY_CODE":"US","MEAN_MOTION_DOT":"0.00003805","LAUNCH_DATE":"2021-03-14","ECCENTRICITY":"0.00014670","BSTAR":"0.00027416000000","ARG_OF_PERICENTER":"72.7336","CLASSIFICATION_TYPE":"U"},{"REF_FRAME":"TEME","ELEMENT_SET_NO":"999","REV_AT_EPOCH":"8739","RA_OF_ASC_NODE":"136.4472","APOAPSIS":"548.017","FILE":"3590585","MEAN_MOTION":"15.06409770","RCS_SIZE":"LARGE","OBJECT_NAME":"STARLINK-2331","GP_ID":"214117097","SEMIMAJOR_AXIS":"6925.319","PERIAPSIS":"546.350","TIME_SYSTEM":"UTC","OBJECT_ID":"2021-021R","DECAY_DATE":null,"NORAD_CAT_ID":"47875","EPOCH":"2022-10-03T17:10:18.862176","TLE_LINE2":"2 47875  53.0521 136.4472 0001203 116.9159 243.1953 15.06409770 87397","TLE_LINE1":"1 47875U 21021R   22276.71549609  .00005180  00000-0  36626-3 0  9997","SITE":"AFETR","PERIOD":"95.592","EPHEMERIS_TYPE":"0","MEAN_ELEMENT_THEORY":"SGP4","OBJECT_TYPE":"PAYLOAD","CLASSIFICATION_TYPE":"U","BSTAR":"0.00036626000000","ARG_OF_PERICENTER":"116.9159","COUNTRY_CODE":"US","ECCENTRICITY":"0.00012030","LAUNCH_DATE":"2021-03-14","MEAN_MOTION_DOT":"0.00005180","MEAN_ANOMALY":"243.1953","MEAN_MOTION_DDOT":"0.0000000000000","INCLINATION":"53.0521","CENTER_NAME":"EARTH"},{"CLASSIFICATION_TYPE":"U","BSTAR":"0.00013520000000","ARG_OF_PERICENTER":"89.7756","COUNTRY_CODE":"US","LAUNCH_DATE":"2021-03-14","MEAN_MOTION_DOT":"0.00001733","ECCENTRICITY":"0.00013270","MEAN_ANOMALY":"270.3385","MEAN_MOTION_DDOT":"0.0000000000000","INCLINATION":"53.0527","CENTER_NAME":"EARTH","REF_FRAME":"TEME","REV_AT_EPOCH":"8733","ELEMENT_SET_NO":"999","FILE":"3590585","APOAPSIS":"548.112","RA_OF_ASC_NODE":"136.7922","MEAN_MOTION":"15.06406654","GP_ID":"214117347","OBJECT_NAME":"STARLINK-2332","RCS_SIZE":"LARGE","PERIAPSIS":"546.274","SEMIMAJOR_AXIS":"6925.328","TIME_SYSTEM":"UTC","OBJECT_ID":"2021-021S","DECAY_DATE":null,"NORAD_CAT_ID":"47876","EPOCH":"2022-10-03T15:18:49.971168","TLE_LINE2":"2 47876  53.0527 136.7922 0001327  89.7756 270.3385 15.06406654 87337","TLE_LINE1":"1 47876U 21021S   22276.63807837  .00001733  00000-0  13520-3 0  9997","PERIOD":"95.592","SITE":"AFETR","EPHEMERIS_TYPE":"0","OBJECT_TYPE":"PAYLOAD","MEAN_ELEMENT_THEORY":"SGP4"},{"BSTAR":"0.00012910000000","ARG_OF_PERICENTER":"95.4824","CLASSIFICATION_TYPE":"U","COUNTRY_CODE":"US","ECCENTRICITY":"0.00012690","LAUNCH_DATE":"2021-03-14","MEAN_MOTION_DOT":"0.00001642","MEAN_ANOMALY":"264.6310","MEAN_MOTION_DDOT":"0.0000000000000","CENTER_NAME":"EARTH","INCLINATION":"53.0536","ELEMENT_SET_NO":"999","REV_AT_EPOCH":"8688","APOAPSIS":"548.077","RA_OF_ASC_NODE":"135.8371","FILE":"3590418","REF_FRAME":"TEME","SEMIMAJOR_AXIS":"6925.334","PERIAPSIS":"546.320","TIME_SYSTEM":"UTC","MEAN_MOTION":"15.06404895","RCS_SIZE":"LARGE","OBJECT_NAME":"STARLINK-2333","GP_ID":"214092797","EPOCH":"2022-10-03T20:26:41.388288","NORAD_CAT_ID":"47877","TLE_LINE2":"2 47877  53.0536 135.8371 0001269  95.4824 264.6310 15.06404895 86889","OBJECT_ID":"2021-021T","DECAY_DATE":null,"EPHEMERIS_TYPE":"0","MEAN_ELEMENT_THEORY":"SGP4","OBJECT_TYPE":"PAYLOAD","TLE_LINE1":"1 47877U 21021T   22276.85186792  .00001642  00000-0  12910-3 0  9993","SITE":"AFETR","PERIOD":"95.592"},{"OBJECT_ID":"2021-021U","DECAY_DATE":null,"NORAD_CAT_ID":"47878","EPOCH":"2022-10-03T20:42:37.956384","TLE_LINE2":"2 47878  53.0539 135.7841 0001330  83.3310 276.7831 15.06399221 86887","TLE_LINE1":"1 47878U 21021U   22276.86293931  .00000800  00000-0  72569-4 0  9991","PERIOD":"95.592","SITE":"AFETR","EPHEMERIS_TYPE":"0","OBJECT_TYPE":"PAYLOAD","MEAN_ELEMENT_THEORY":"SGP4","REF_FRAME":"TEME","REV_AT_EPOCH":"8688","ELEMENT_SET_NO":"999","FILE":"3590525","APOAPSIS":"548.137","RA_OF_ASC_NODE":"135.7841","MEAN_MOTION":"15.06399221","GP_ID":"214095765","OBJECT_NAME":"STARLINK-2335","RCS_SIZE":"LARGE","PERIAPSIS":"546.295","SEMIMAJOR_AXIS":"6925.351","TIME_SYSTEM":"UTC","MEAN_ANOMALY":"276.7831","MEAN_MOTION_DDOT":"0.0000000000000","INCLINATION":"53.0539","CENTER_NAME":"EARTH","CLASSIFICATION_TYPE":"U","BSTAR":"0.00007256900000","ARG_OF_PERICENTER":"83.3310","COUNTRY_CODE":"US","LAUNCH_DATE":"2021-03-14","MEAN_MOTION_DOT":"0.00000800","ECCENTRICITY":"0.00013300"},{"DECAY_DATE":null,"OBJECT_ID":"2021-021V","TLE_LINE2":"2 47879  53.0533 150.7999 0001272 113.4652 246.6471 15.06403232 86673","NORAD_CAT_ID":"47879","EPOCH":"2022-10-03T20:37:58.444608","SITE":"AFETR","PERIOD":"95.592","TLE_LINE1":"1 47879U 21021V   22276.85970422  .00006549  00000-0  45808-3 0  9999","OBJECT_TYPE":"PAYLOAD","MEAN_ELEMENT_THEORY":"SGP4","EPHEMERIS_TYPE":"0","REF_FRAME":"TEME","RA_OF_ASC_NODE":"150.7999","APOAPSIS":"548.085","FILE":"3590525","ELEMENT_SET_NO":"999","REV_AT_EPOCH":"8667","RCS_SIZE":"LARGE","GP_ID":"214095260","OBJECT_NAME":"STARLINK-2336","MEAN_MOTION":"15.06403232","TIME_SYSTEM":"UTC","SEMIMAJOR_AXIS":"6925.339","PERIAPSIS":"546.323","MEAN_MOTION_DDOT":"0.0000000000000","MEAN_ANOMALY":"246.6471","INCLINATION":"53.0533","CENTER_NAME":"EARTH","CLASSIFICATION_TYPE":"U","ARG_OF_PERICENTER":"113.4652","BSTAR":"0.00045808000000","MEAN_MOTION_DOT":"0.00006549","LAUNCH_DATE":"2021-03-14","ECCENTRICITY":"0.00012720","COUNTRY_CODE":"US"},{"CLASSIFICATION_TYPE":"U","BSTAR":"0.00013925000000","ARG_OF_PERICENTER":"101.8778","COUNTRY_CODE":"US","LAUNCH_DATE":"2021-03-14","ECCENTRICITY":"0.00011070","MEAN_MOTION_DOT":"0.00001794","MEAN_ANOMALY":"258.2336","MEAN_MOTION_DDOT":"0.0000000000000","INCLINATION":"53.0541","CENTER_NAME":"EARTH","REF_FRAME":"TEME","REV_AT_EPOCH":"8720","ELEMENT_SET_NO":"999","FILE":"3590585","RA_OF_ASC_NODE":"146.2187","APOAPSIS":"547.939","MEAN_MOTION":"15.06413366","GP_ID":"214117847","OBJECT_NAME":"STARLINK-2337","RCS_SIZE":"LARGE","PERIAPSIS":"546.406","SEMIMAJOR_AXIS":"6925.308","TIME_SYSTEM":"UTC","OBJECT_ID":"2021-021W","DECAY_DATE":null,"NORAD_CAT_ID":"47880","EPOCH":"2022-10-03T18:23:16.912608","TLE_LINE2":"2 47880  53.0541 146.2187 0001107 101.8778 258.2336 15.06413366 87208","TLE_LINE1":"1 47880U 21021W   22276.76616797  .00001794  00000-0  13925-3 0  9995","PERIOD":"95.591","SITE":"AFETR","EPHEMERIS_TYPE":"0","OBJECT_TYPE":"PAYLOAD","MEAN_ELEMENT_THEORY":"SGP4"},{"CENTER_NAME":"EARTH","INCLINATION":"53.0536","MEAN_MOTION_DDOT":"0.0000000000000","MEAN_ANOMALY":"269.9620","LAUNCH_DATE":"2021-03-14","MEAN_MOTION_DOT":"-0.00001763","ECCENTRICITY":"0.00017740","COUNTRY_CODE":"US","ARG_OF_PERICENTER":"90.1572","BSTAR":"-0.00009941900000","CLASSIFICATION_TYPE":"U","MEAN_ELEMENT_THEORY":"SGP4","OBJECT_TYPE":"PAYLOAD","EPHEMERIS_TYPE":"0","SITE":"AFETR","PERIOD":"95.591","TLE_LINE1":"1 47881U 21021X   22276.85830969 -.00001763  00000-0 -99419-4 0  9996","TLE_LINE2":"2 47881  53.0536 145.7941 0001774  90.1572 269.9620 15.06422329 87188","NORAD_CAT_ID":"47881","EPOCH":"2022-10-03T20:35:57.957216","DECAY_DATE":null,"OBJECT_ID":"2021-021X","TIME_SYSTEM":"UTC","SEMIMAJOR_AXIS":"6925.280","PERIAPSIS":"545.917","RCS_SIZE":"LARGE","GP_ID":"214118099","OBJECT_NAME":"STARLINK-2339","MEAN_MOTION":"15.06422329","RA_OF_ASC_NODE":"145.7941","APOAPSIS":"548.374","FILE":"3590585","ELEMENT_SET_NO":"999","REV_AT_EPOCH":"8718","REF_FRAME":"TEME"},{"MEAN_MOTION_DDOT":"0.0000000000000","MEAN_ANOMALY":"258.1024","CENTER_NAME":"EARTH","INCLINATION":"53.0544","ARG_OF_PERICENTER":"102.0144","BSTAR":"-0.00013961000000","CLASSIFICATION_TYPE":"U","ECCENTRICITY":"0.00015940","LAUNCH_DATE":"2021-03-14","MEAN_MOTION_DOT":"-0.00002361","COUNTRY_CODE":"US","TLE_LINE2":"2 47882  53.0544 135.9223 0001594 102.0144 258.1024 15.06418200 87529","EPOCH":"2022-10-03T20:00:08.815968","NORAD_CAT_ID":"47882","DECAY_DATE":null,"OBJECT_ID":"2021-021Y","OBJECT_TYPE":"PAYLOAD","MEAN_ELEMENT_THEORY":"SGP4","EPHEMERIS_TYPE":"0","SITE":"AFETR","PERIOD":"95.591","TLE_LINE1":"1 47882U 21021Y   22276.83343537 -.00002361  00000-0 -13961-3 0  9997","APOAPSIS":"548.262","RA_OF_ASC_NODE":"135.9223","FILE":"3590585","ELEMENT_SET_NO":"999","REV_AT_EPOCH":"8752","REF_FRAME":"TEME","TIME_SYSTEM":"UTC","SEMIMAJOR_AXIS":"6925.293","PERIAPSIS":"546.054","RCS_SIZE":"LARGE","GP_ID":"214118343","OBJECT_NAME":"STARLINK-2340","MEAN_MOTION":"15.06418200"},{"CLASSIFICATION_TYPE":"U","BSTAR":"0.00014505000000","ARG_OF_PERICENTER":"97.7912","COUNTRY_CODE":"US","ECCENTRICITY":"0.00013610","LAUNCH_DATE":"2021-03-14","MEAN_MOTION_DOT":"0.00001880","MEAN_ANOMALY":"262.3231","MEAN_MOTION_DDOT":"0.0000000000000","INCLINATION":"53.0553","CENTER_NAME":"EARTH","REF_FRAME":"TEME","REV_AT_EPOCH":"8746","ELEMENT_SET_NO":"999","FILE":"3590585","RA_OF_ASC_NODE":"140.7421","APOAPSIS":"548.130","MEAN_MOTION":"15.06408360","OBJECT_NAME":"STARLINK-2342","GP_ID":"214117098","RCS_SIZE":"LARGE","PERIAPSIS":"546.245","SEMIMAJOR_AXIS":"6925.323","TIME_SYSTEM":"UTC","OBJECT_ID":"2021-021Z","DECAY_DATE":null,"NORAD_CAT_ID":"47883","EPOCH":"2022-10-03T20:55:13.069920","TLE_LINE2":"2 47883  53.0553 140.7421 0001361  97.7912 262.3231 15.06408360 87465","TLE_LINE1":"1 47883U 21021Z   22276.87167905  .00001880  00000-0  14505-3 0  9993","PERIOD":"95.592","SITE":"AFETR","EPHEMERIS_TYPE":"0","OBJECT_TYPE":"PAYLOAD","MEAN_ELEMENT_THEORY":"SGP4"}];
